INTELSAT 25 (IS-25)     
1 33153U 08034A   26094.09871949 -.00000224  00000+0  00000+0 0  9995
2 33153   2.5167  81.1965 0002980 251.5433 223.7214  1.00271339 64951
GALAXY 19 (G-19)        
1 33376U 08045A   26094.24704690 -.00000140  00000+0  00000+0 0  9996
2 33376   0.0222 247.3484 0002912 133.4539 163.7022  1.00272764 64161
FM-5                    
1 35493U 09034A   26093.94497961 -.00000202  00000+0  00000+0 0  9992
2 35493   0.0201 254.8145 0000175  18.3757 173.1090  1.00273030 45895
INTELSAT 14 (IS-14)     
1 36097U 09064A   26094.22753240 -.00000274  00000+0  00000+0 0  9992
2 36097   0.0433  73.1355 0002558 308.7043 207.6211  1.00272903 59867
INTELSAT 15 (IS-15)     
1 36106U 09067A   26094.22586333  .00000000  00000+0  00000+0 0  9999
2 36106   0.0189 222.0014 0002491 167.4493 329.5559  1.00269977 40482
DIRECTV 12              
1 36131U 09075A   26094.01326582 -.00000105  00000+0  00000+0 0  9998
2 36131   0.0124 329.7374 0000464  71.5214  53.1228  1.00272211 45817
INTELSAT 16 (IS-16)     
1 36397U 10006A   26094.16111975  .00000000  00000+0  00000+0 0  9995
2 36397   0.0149 223.6596 0002141 176.4368 134.1877  1.00270165 58916
XM-5                    
1 37185U 10053A   26094.21650589 -.00000024  00000+0  00000+0 0  9995
2 37185   0.0671 269.4206 0003913 267.6350 338.2222  1.00273168 56746
INTELSAT 17 (IS-17)     
1 37238U 10065B   26094.23169860 -.00000002  00000+0  00000+0 0  9992
2 37238   0.0147 197.4531 0002446 186.0341 318.4685  1.00271426 52506
INTELSAT 28 (IS-28)     
1 37392U 11016A   26094.22197449 -.00000225  00000+0  00000+0 0  9990
2 37392   1.6152  83.5187 0004521 296.7697 220.4564  1.00272088 52548
INTELSAT 18 (IS-18)     
1 37834U 11056A   26094.21190662  .00000053  00000+0  00000+0 0  9992
2 37834   0.0177 250.8938 0001978 124.3087  73.6110  1.00273746 53069
INTELSAT 22 (IS-22)     
1 38098U 12011A   26094.19049987 -.00000059  00000+0  00000+0 0  9994
2 38098   0.0126 222.1585 0001678 156.2103 314.8226  1.00271481  6448
INTELSAT 19 (IS-19)     
1 38356U 12030A   26094.23030840 -.00000057  00000+0  00000+0 0  9993
2 38356   0.0206 112.9512 0003064 263.5924  64.9174  1.00270509 49705
INTELSAT 20 (IS-20)     
1 38740U 12043A   26094.23169860 -.00000025  00000+0  00000+0 0  9994
2 38740   0.0175 135.6867 0002599  31.9243 176.8492  1.00271913 50006
INTELSAT 21 (IS-21)     
1 38749U 12045A   26094.23608671  .00000000  00000+0  00000+0 0  9995
2 38749   0.0203 212.6000 0001946 178.1812 188.7695  1.00270089 49786
INTELSAT 23 (IS-23)     
1 38867U 12057A   26094.23704005 -.00000285  00000+0  00000+0 0  9993
2 38867   0.0182 249.6397 0000595 152.9859 182.2427  1.00269445 49216
FM-6                    
1 39360U 13058A   26094.21650558 -.00000016  00000+0  00000+0 0  9997
2 39360   0.0166 135.0134 0002505  56.1374 322.9619  1.00270619 45334
